0 TELKOM 1
1 25880U 99042A   13280.84287565 -.00000354  00000-0  10000-3 0  6013
2 25880 000.0150 171.8122 0001553 075.0986 181.2431 01.00271269 51916
0 TELKOM 1
1 25880U 99042A   13282.87047082 -.00000359  00000-0  10000-3 0  6022
2 25880 000.0183 167.0217 0001677 071.5791 201.4753 01.00270119 51933
0 TELKOM 1
1 25880U 99042A   13283.15822587  .00000000  00000-0  10000-3 0  6038
2 25880 000.0196 152.9334 0001896 090.7829 300.2328 01.00267347 50235
0 TELKOM 1
1 25880U 99042A   13283.88402175 -.00000362  00000-0  10000-3 0  6037
2 25880 000.0171 169.9733 0001730 068.3535 207.6138 01.00269112 51941
0 TELKOM 1
1 25880U 99042A   13285.47157093 -.00000367  00000-0  10000-3 0  6046
2 25880 000.0162 175.2309 0001931 063.4961 060.2601 01.00267005 51950
0 TELKOM 1
1 25880U 99042A   13285.86336898 -.00000367  00000-0  10000-3 0  6052
2 25880 000.0158 177.2828 0001979 060.4035 202.7332 01.00267191 51965
0 TELKOM 1
1 25880U 99042A   13285.97476634 -.00000368  00000-0  10000-3 0  6069
2 25880 000.0159 177.0404 0001748 055.9371 247.6574 01.00267379 51964
0 TELKOM 1
1 25880U 99042A   13288.53172409 -.00000369  00000-0  10000-3 0  6079
2 25880 000.0147 176.8565 0002038 032.5880 114.2470 01.00273061 51986
0 TELKOM 1
1 25880U 99042A   13288.53179784 -.00000369  00000-0  10000-3 0  6083
2 25880 000.0140 178.9536 0002359 054.3420 090.4018 01.00270640 51981
0 TELKOM 1
1 25880U 99042A   13288.84789481 -.00000369  00000-0  10000-3 0  6099
2 25880 000.0153 176.8956 0001672 024.9321 235.9945 01.00271976 51997
0 TELKOM 1
1 25880U 99042A   13289.78739698 -.00000368  00000-0  10000-3 0  6109
2 25880 000.0139 177.6563 0002031 033.4888 205.8310 01.00272533 52002
0 TELKOM 1
1 25880U 99042A   13290.16290204  .00000000  00000-0  10000-3 0  6111
2 25880 000.0178 155.5078 0002049 053.6665 343.3551 01.00268930 50309
0 TELKOM 1
1 25880U 99042A   13291.55337756 -.00000364  00000-0  10000-3 0  6113
2 25880 000.0135 183.5288 0002217 041.8789 109.0596 01.00271759 52018
0 TELKOM 1
1 25880U 99042A   13292.78059696 -.00000361  00000-0  10000-3 0  6121
2 25880 000.0136 192.2290 0002078 031.0944 194.1550 01.00271473 52038
0 TELKOM 1
1 25880U 99042A   13293.79143076 -.00000360  00000-0  10000-3 0  6139
2 25880 000.0134 194.9102 0001994 027.1275 200.3371 01.00271198 52042
